{"type":"FeatureCollection","features":[{"type":"Feature","properties":{"nombre":"AYACUCHO","area_ha":1117855.21},"geometry":{"type":"Polygon","coordinates":[[[-63.3368,8.89558],[-63.33674,8.80059],[-63.36848,8.80054],[-63.36935,8.68391],[-63.36892,8.61619],[-63.3699,8.57058],[-63.33653,8.57061],[-63.33642,8.45524],[-63.33813,8.2451],[-63.34431,8.24761],[-63.3489,8.2471],[-63.35733,8.24291],[-63.36704,8.23518],[-63.37753,8.22998],[-63.37981,8.22982],[-63.39363,8.21976],[-63.39986,8.21193],[-63.4004,8.20993],[-63.40184,8.2095],[-63.40412,8.21049],[-63.40522,8.21],[-63.40651,8.20764],[-63.40636,8.20531],[-63.4075,8.2046],[-63.41152,8.20532],[-63.41339,8.20475],[-63.41787,8.20251],[-63.42091,8.19974],[-63.42731,8.19017],[-63.42859,8.18564],[-63.43086,8.18591],[-63.43207,8.18455],[-63.43192,8.18135],[-63.43288,8.18024],[-63.43633,8.17943],[-63.43871,8.17796],[-63.4581,8.1798],[-63.47565,8.1672],[-63.47886,8.16579],[-63.48797,8.1657],[-63.49518,8.16815],[-63.49963,8.16785],[-63.51838,8.16263],[-63.52433,8.16023],[-63.52884,8.16094],[-63.53197,8.16058],[-63.53401,8.15872],[-63.54284,8.15698],[-63.54417,8.15518],[-63.54951,8.15326],[-63.55504,8.1535],[-63.55619,8.15415],[-63.56658,8.15343],[-63.5744,8.15139],[-63.58107,8.14833],[-63.58798,8.14754],[-63.59008,8.14856],[-63.59279,8.14754],[-63.60294,8.15245],[-63.60847,8.15353],[-63.61736,8.15359],[-63.62151,8.15484],[-63.62572,8.1567],[-63.6372,8.16521],[-63.66178,8.17461],[-63.66712,8.17473],[-63.68065,8.17322],[-63.68557,8.17178],[-63.6887,8.16716],[-63.70276,8.15463],[-63.7119,8.15072],[-63.71845,8.1503],[-63.73257,8.14646],[-63.74171,8.14573],[-63.74525,8.14657],[-63.75337,8.15088],[-63.77266,8.15339],[-63.77693,8.15267],[-63.79279,8.15278],[-63.811,8.14726],[-63.81653,8.14468],[-63.822,8.14072],[-63.83216,8.1298],[-63.8348,8.12518],[-63.8351,8.12314],[-63.84682,8.10713],[-63.85949,8.09666],[-63.86922,8.08364],[-63.87168,8.07981],[-63.87577,8.06661],[-63.87955,8.05666],[-63.88226,8.05174],[-63.88988,8.04287],[-63.89457,8.03507],[-63.89992,8.02967],[-63.90616,8.01834],[-63.91049,8.01234],[-63.91723,8.00645],[-63.92711,7.99948],[-63.93278,7.99687],[-63.94005,7.99141],[-63.94557,7.98967],[-63.96582,7.97935],[-63.9785,7.97132],[-64.0001,7.96339],[-64.00883,7.95842],[-64.01791,7.95602],[-64.03058,7.95464],[-64.06765,7.96236],[-64.06841,7.96419],[-64.06685,7.96676],[-64.06672,7.96853],[-64.06801,7.97544],[-64.07248,7.98141],[-64.07682,7.98568],[-64.07919,7.98629],[-64.08252,7.98487],[-64.0872,7.98595],[-64.09818,7.99301],[-64.10632,7.99694],[-64.10911,8.00032],[-64.12979,8.00858],[-64.14467,8.0177],[-64.15047,8.02635],[-64.15561,8.02902],[-64.15986,8.02918],[-64.16489,8.03056],[-64.16838,8.02797],[-64.17321,8.03067],[-64.17692,8.03336],[-64.17689,8.03426],[-64.17527,8.03399],[-64.18318,8.04464],[-64.18397,8.04873],[-64.18593,8.05263],[-64.18899,8.06591],[-64.19198,8.07242],[-64.1981,8.07789],[-64.20435,8.07972],[-64.20572,8.08089],[-64.20728,8.08473],[-64.20819,8.09065],[-64.2119,8.09527],[-64.21425,8.09703],[-64.22623,8.10179],[-64.22935,8.10231],[-64.25585,8.09807],[-64.2606,8.09593],[-64.26464,8.09553],[-64.29114,8.09723],[-64.29908,8.09508],[-64.30891,8.09072],[-64.32199,8.08024],[-64.33658,8.06331],[-64.341,8.05693],[-64.35815,8.02413],[-64.36247,8.02033],[-64.37634,8.01143],[-64.38079,8.00947],[-64.38328,8.00698],[-64.38747,8.00672],[-64.40186,8.00201],[-64.41063,8.00175],[-64.41561,8.00293],[-64.42071,8.00541],[-64.42281,8.00764],[-64.42657,8.02452],[-64.43187,8.0349],[-64.43739,8.03976],[-64.44269,8.04226],[-64.45153,8.04403],[-64.46029,8.04432],[-64.46691,8.04336],[-64.49099,8.0335],[-64.50056,8.03188],[-64.50885,8.02814],[-64.50999,8.19997],[-64.50934,8.2264],[-64.5099,8.3719],[-64.55455,8.41221],[-64.52865,8.42445],[-64.52996,8.42704],[-64.49696,8.44263],[-64.50041,8.44978],[-64.48954,8.45494],[-64.49693,8.47038],[-64.50363,8.46722],[-64.51854,8.49851],[-64.49841,8.53262],[-64.50169,8.69048],[-64.49797,8.93122],[-64.3214,8.90332],[-64.3214,8.94004],[-64.31623,8.94259],[-64.31174,8.9425],[-64.30862,8.94429],[-64.30372,8.94364],[-64.30137,8.94426],[-64.29891,8.94364],[-64.29801,8.94212],[-64.29585,8.9418],[-64.29264,8.94247],[-64.2861,8.94679],[-64.28248,8.9447],[-64.2771,8.94561],[-64.26718,8.94086],[-64.26352,8.93695],[-64.25586,8.93572],[-64.25188,8.9334],[-64.24988,8.9334],[-64.24489,8.9359],[-64.24287,8.93604],[-64.24136,8.93574],[-64.23907,8.9326],[-64.23595,8.93132],[-64.23239,8.93113],[-64.22874,8.93227],[-64.22683,8.93079],[-64.22318,8.9312],[-64.21842,8.9281],[-64.19886,8.93087],[-64.19378,8.92966],[-64.12989,8.95542],[-64.12015,8.94595],[-64.09969,8.93569],[-64.09128,8.9156],[-64.05631,8.8886],[-64.00874,8.87869],[-63.98432,8.87181],[-63.96911,8.85985],[-63.95807,8.86008],[-63.9526,8.86213],[-63.94772,8.86107],[-63.94448,8.86177],[-63.93801,8.85863],[-63.936,8.8588],[-63.93391,8.85736],[-63.9261,8.85627],[-63.92459,8.85375],[-63.92176,8.85148],[-63.91307,8.84623],[-63.89269,8.84722],[-63.88967,8.84541],[-63.88661,8.84611],[-63.88552,8.84747],[-63.87021,8.84698],[-63.86703,8.84575],[-63.86526,8.84381],[-63.86438,8.84422],[-63.86163,8.84283],[-63.86006,8.84326],[-63.85851,8.84222],[-63.85271,8.84548],[-63.8499,8.84466],[-63.84345,8.84465],[-63.83899,8.84817],[-63.83345,8.84488],[-63.81679,8.8466],[-63.8082,8.84463],[-63.80525,8.84591],[-63.80083,8.84931],[-63.79873,8.84891],[-63.7973,8.84985],[-63.79166,8.84568],[-63.78511,8.83436],[-63.77951,8.83063],[-63.77329,8.82965],[-63.77204,8.83032],[-63.7702,8.82895],[-63.76685,8.82935],[-63.76162,8.83284],[-63.75963,8.83375],[-63.75926,8.83313],[-63.75812,8.8342],[-63.75693,8.83307],[-63.75508,8.83315],[-63.75368,8.83073],[-63.75147,8.8296],[-63.75131,8.8281],[-63.74812,8.8248],[-63.74648,8.82417],[-63.74334,8.82703],[-63.74267,8.8261],[-63.74052,8.82727],[-63.73441,8.8273],[-63.73165,8.82559],[-63.73053,8.82625],[-63.72737,8.82607],[-63.72636,8.82444],[-63.71985,8.82289],[-63.71888,8.82123],[-63.71114,8.82169],[-63.70818,8.82127],[-63.70705,8.82032],[-63.70506,8.82127],[-63.70413,8.82053],[-63.70307,8.82099],[-63.70178,8.8196],[-63.69919,8.82069],[-63.69613,8.82031],[-63.6945,8.81858],[-63.68875,8.81719],[-63.68748,8.81774],[-63.68407,8.81563],[-63.68196,8.81605],[-63.68076,8.81547],[-63.67761,8.81732],[-63.67615,8.81724],[-63.67185,8.81255],[-63.66684,8.81234],[-63.6627,8.80708],[-63.66042,8.80555],[-63.65713,8.80512],[-63.63568,8.81828],[-63.64018,8.82008],[-63.61648,8.82088],[-63.61658,8.79468],[-63.56908,8.82248],[-63.55998,8.80708],[-63.54735,8.81454],[-63.54735,8.82217],[-63.51058,8.85768],[-63.49588,8.86578],[-63.49578,8.88938],[-63.51408,8.88948],[-63.51398,8.90298],[-63.46478,8.90278],[-63.45928,8.89828],[-63.44278,8.91368],[-63.43098,8.89988],[-63.42491,8.90399],[-63.41918,8.88718],[-63.38358,8.89788],[-63.34677,8.89831],[-63.33682,8.89956],[-63.3368,8.89558]]]}},{"type":"Feature","properties":{"nombre":"BOYACA","area_ha":2946988.49},"geometry":{"type":"Polygon","coordinates":[[[-65.67268,8.94244],[-65.66807,8.67217],[-65.66436,8.13004],[-65.661,7.91124],[-65.66356,7.91036],[-65.67823,7.90026],[-65.68274,7.89802],[-65.68836,7.89278],[-65.68967,7.89036],[-65.6979,7.88289],[-65.70205,7.88029],[-65.70663,7.87533],[-65.71415,7.87167],[-65.72252,7.87225],[-65.7294,7.8707],[-65.74142,7.86128],[-65.74456,7.85794],[-65.74997,7.84685],[-65.75316,7.84308],[-65.76083,7.82845],[-65.76527,7.82646],[-65.77408,7.81844],[-65.77803,7.81598],[-65.78117,7.81177],[-65.787,7.79825],[-65.79312,7.78763],[-65.80311,7.77846],[-65.80364,7.77362],[-65.80818,7.76704],[-65.81193,7.76347],[-65.83877,7.74564],[-65.84026,7.73772],[-65.84324,7.73306],[-65.84641,7.72509],[-65.8465,7.72243],[-65.84459,7.71852],[-65.84012,7.71815],[-65.84348,7.7155],[-65.84534,7.71289],[-65.87102,7.70371],[-65.87787,7.70301],[-65.88396,7.70398],[-65.88485,7.70286],[-65.89156,7.70011],[-65.91267,7.69522],[-65.91961,7.69568],[-65.92944,7.69955],[-65.94161,7.701],[-65.95139,7.70356],[-65.96388,7.70193],[-65.96682,7.70058],[-65.97521,7.70142],[-65.98117,7.70095],[-65.99318,7.69725],[-66.00199,7.69826],[-66.01529,7.69816],[-66.02682,7.69647],[-66.03903,7.69821],[-66.04459,7.70026],[-66.06561,7.7003],[-66.07056,7.69968],[-66.08606,7.70101],[-66.09086,7.70239],[-66.09865,7.7016],[-66.10806,7.70514],[-66.1127,7.70376],[-66.12013,7.70331],[-66.12765,7.70066],[-66.14783,7.68693],[-66.1577,7.68391],[-66.16245,7.6814],[-66.1661,7.68133],[-66.17085,7.67923],[-66.17789,7.6775],[-66.18208,7.67536],[-66.19744,7.66641],[-66.20536,7.65952],[-66.21,7.65267],[-66.2177,7.64557],[-66.23228,7.63964],[-66.23902,7.63798],[-66.25228,7.63772],[-66.26075,7.6428],[-66.26864,7.65334],[-66.27519,7.65864],[-66.28639,7.6614],[-66.29187,7.66457],[-66.29733,7.66578],[-66.30031,7.66737],[-66.30245,7.66711],[-66.32738,7.66129],[-66.33117,7.65971],[-66.34192,7.65826],[-66.35251,7.65214],[-66.352,7.64983],[-66.35717,7.64591],[-66.36269,7.64411],[-66.36911,7.63754],[-66.37861,7.63409],[-66.38833,7.62363],[-66.39581,7.61917],[-66.4013,7.61946],[-66.4046,7.62087],[-66.40987,7.62074],[-66.41967,7.62642],[-66.43267,7.63589],[-66.44235,7.6402],[-66.45648,7.64336],[-66.4665,7.64301],[-66.46794,7.64467],[-66.46844,7.64682],[-66.46817,7.64959],[-66.46577,7.65594],[-66.46662,7.65846],[-66.46909,7.65817],[-66.47115,7.6569],[-66.47706,7.64939],[-66.48052,7.64675],[-66.48437,7.64708],[-66.49186,7.65132],[-66.49412,7.65108],[-66.49986,7.64481],[-66.50169,7.64163],[-66.50453,7.63929],[-66.51158,7.63718],[-66.51611,7.637],[-66.52072,7.63938],[-66.52337,7.64262],[-66.52754,7.6508],[-66.5289,7.65523],[-66.52792,7.65691],[-66.52343,7.66011],[-66.51358,7.66566],[-66.5132,7.66822],[-66.51698,7.67157],[-66.52772,7.67461],[-66.5403,7.67519],[-66.54613,7.67446],[-66.56403,7.66809],[-66.57542,7.66258],[-66.57858,7.65909],[-66.57876,7.65377],[-66.58042,7.65214],[-66.58206,7.65174],[-66.58457,7.65298],[-66.58696,7.65704],[-66.58849,7.66152],[-66.58958,7.6688],[-66.59157,7.67252],[-66.59608,7.67526],[-66.60167,7.67585],[-66.60666,7.67424],[-66.61556,7.66711],[-66.62015,7.66483],[-66.64087,7.66524],[-66.64488,7.66367],[-66.65382,7.65735],[-66.66427,7.65347],[-66.67887,7.65487],[-66.68266,7.65674],[-66.68737,7.6618],[-66.68989,7.66279],[-66.69416,7.66179],[-66.70356,7.65547],[-66.71102,7.65367],[-66.71497,7.65425],[-66.72165,7.65332],[-66.72779,7.65376],[-66.74183,7.65988],[-66.7424,7.65932],[-66.74185,7.65604],[-66.73905,7.6512],[-66.72476,7.64214],[-66.72277,7.6385],[-66.72366,7.63497],[-66.72667,7.63056],[-66.72899,7.62883],[-66.73285,7.62747],[-66.73979,7.62801],[-66.7463,7.6304],[-66.75681,7.64115],[-66.76245,7.64389],[-66.76656,7.6435],[-66.77315,7.64097],[-66.78158,7.6401],[-66.79334,7.64297],[-66.81264,7.65006],[-66.81139,7.6443],[-66.80477,7.63191],[-66.80428,7.62751],[-66.80659,7.62691],[-66.80885,7.62738],[-66.81696,7.63172],[-66.82465,7.63766],[-66.82752,7.63793],[-66.83031,7.63493],[-66.83241,7.62606],[-66.83549,7.61888],[-66.83961,7.61603],[-66.84295,7.61569],[-66.84639,7.61704],[-66.85245,7.62113],[-66.86004,7.62373],[-66.86392,7.62797],[-66.86506,7.62774],[-66.8705,7.62228],[-66.87412,7.62093],[-66.87743,7.62145],[-66.88714,7.62692],[-66.88995,7.62765],[-66.89863,7.62671],[-66.90958,7.62349],[-66.91665,7.62394],[-66.92536,7.62818],[-66.93136,7.62952],[-66.94419,7.63603],[-66.94693,7.63607],[-66.96086,7.64674],[-66.96812,7.64947],[-66.97146,7.64933],[-66.97436,7.64807],[-66.98142,7.64199],[-66.98224,7.64044],[-66.98717,7.63891],[-66.98988,7.63934],[-66.9943,7.64186],[-66.99847,7.64624],[-67.00003,7.6505],[-67.00256,7.653],[-67.00933,7.64912],[-67.02201,7.6483],[-67.03039,7.64491],[-67.03424,7.64546],[-67.03901,7.65033],[-67.04042,7.65466],[-67.03872,7.65768],[-67.03133,7.66444],[-67.02961,7.66802],[-67.02996,7.67122],[-67.03216,7.6716],[-67.04721,7.66049],[-67.04862,7.66036],[-67.05425,7.6665],[-67.05946,7.6765],[-67.06213,7.67765],[-67.06319,7.67895],[-67.06177,7.68293],[-67.05292,7.6926],[-67.05005,7.6978],[-67.04876,7.70921],[-67.05045,7.71476],[-67.05401,7.71791],[-67.0647,7.72344],[-67.0704,7.72754],[-67.07668,7.73024],[-67.08342,7.73084],[-67.09065,7.72987],[-67.09558,7.72736],[-67.10116,7.72281],[-67.10945,7.71873],[-67.12571,7.71326],[-67.12929,7.71274],[-67.13297,7.71299],[-67.13454,7.7142],[-67.13969,7.71583],[-67.14786,7.7158],[-67.15904,7.71901],[-67.17196,7.71931],[-67.17655,7.7214],[-67.17798,7.72284],[-67.1801,7.72815],[-67.17949,7.73718],[-67.18015,7.73972],[-67.18265,7.74199],[-67.18848,7.74383],[-67.19604,7.74402],[-67.20253,7.74249],[-67.20778,7.7383],[-67.21434,7.73028],[-67.21635,7.72912],[-67.21943,7.72903],[-67.22514,7.73272],[-67.22894,7.73899],[-67.22944,7.74654],[-67.22421,7.75613],[-67.22353,7.75903],[-67.22562,7.76321],[-67.22904,7.76522],[-67.23362,7.764],[-67.23607,7.76251],[-67.24176,7.75573],[-67.24396,7.74959],[-67.24493,7.74168],[-67.24712,7.73788],[-67.25674,7.73731],[-67.26771,7.73799],[-67.27382,7.73631],[-67.27976,7.73343],[-67.28548,7.73215],[-67.29124,7.73482],[-67.29764,7.73978],[-67.29884,7.74213],[-67.29984,7.75105],[-67.30345,7.76134],[-67.30611,7.76577],[-67.30995,7.76845],[-67.32137,7.76993],[-67.32958,7.7672],[-67.33309,7.76487],[-67.34763,7.76629],[-67.35284,7.76804],[-67.35573,7.77011],[-67.35906,7.77436],[-67.36218,7.78279],[-67.36752,7.78364],[-67.37827,7.78381],[-67.39164,7.78938],[-67.39397,7.78869],[-67.39778,7.78354],[-67.40068,7.78154],[-67.40637,7.78248],[-67.40897,7.78516],[-67.42839,7.79569],[-67.43038,7.79563],[-67.4349,7.79276],[-67.43586,7.79289],[-67.43879,7.80159],[-67.44586,7.80519],[-67.45011,7.80578],[-67.45667,7.80857],[-67.46425,7.81284],[-67.46482,7.81521],[-67.46745,7.81901],[-67.47099,7.8198],[-67.47471,7.82225],[-67.47903,7.82291],[-67.48185,7.82427],[-67.48698,7.82847],[-67.48759,7.83008],[-67.49256,7.83453],[-67.50249,7.83306],[-67.52806,7.83315],[-67.5294,7.83735],[-67.52832,7.83882],[-67.52919,7.84193],[-67.53213,7.84267],[-67.53361,7.84083],[-67.53438,7.84166],[-67.53564,7.84138],[-67.53511,7.84375],[-67.53644,7.84412],[-67.53844,7.84237],[-67.54019,7.84304],[-67.54083,7.84803],[-67.536,7.84883],[-67.52927,7.85138],[-67.52174,7.84588],[-67.51775,7.84764],[-67.51755,7.85271],[-67.52053,7.85888],[-67.51636,7.86843],[-67.51926,7.87332],[-67.51653,7.87608],[-67.51569,7.88305],[-67.51389,7.88704],[-67.51107,7.89032],[-67.5103,7.89036],[-67.50844,7.88382],[-67.50604,7.88107],[-67.50035,7.87897],[-67.49456,7.87941],[-67.49199,7.88053],[-67.49024,7.8826],[-67.48932,7.88793],[-67.48579,7.89037],[-67.48201,7.89456],[-67.47464,7.89874],[-67.47999,7.89941],[-67.48631,7.89846],[-67.49249,7.89864],[-67.50617,7.90127],[-67.51285,7.90141],[-67.51651,7.90328],[-67.51748,7.90472],[-67.52022,7.91682],[-67.52457,7.92294],[-67.52819,7.92584],[-67.53148,7.93015],[-67.53469,7.9316],[-67.53771,7.93493],[-67.54043,7.93972],[-67.53886,7.94346],[-67.53456,7.94551],[-67.52683,7.94668],[-67.51994,7.9498],[-67.51053,7.94989],[-67.50341,7.95186],[-67.50304,7.95417],[-67.50603,7.96185],[-67.50798,7.96535],[-67.51286,7.97097],[-67.51475,7.97213],[-67.52154,7.9728],[-67.525,7.97401],[-67.53061,7.97804],[-67.53389,7.97613],[-67.53505,7.96921],[-67.53715,7.96915],[-67.54156,7.97465],[-67.54476,7.97549],[-67.54826,7.97528],[-67.55105,7.97301],[-67.55338,7.96625],[-67.55719,7.96374],[-67.55872,7.96472],[-67.55908,7.96845],[-67.55379,7.97529],[-67.55361,7.97724],[-67.5549,7.98035],[-67.5585,7.98307],[-67.56369,7.98408],[-67.57365,7.98896],[-67.57397,7.99039],[-67.56944,7.99342],[-67.56623,7.99748],[-67.56215,7.99901],[-67.56113,8.0002],[-67.5602,8.00294],[-67.56041,8.0061],[-67.55778,8.01004],[-67.55787,8.01159],[-67.55918,8.01262],[-67.56061,8.01248],[-67.56768,8.0052],[-67.56978,8.00482],[-67.57152,8.0056],[-67.57356,8.01251],[-67.57682,8.01688],[-67.57767,8.02294],[-67.57879,8.02324],[-67.58236,8.02106],[-67.58269,8.01747],[-67.58475,8.01693],[-67.58561,8.01903],[-67.58352,8.02155],[-67.58323,8.02307],[-67.58528,8.02406],[-67.59171,8.02493],[-67.59495,8.02708],[-67.59505,8.0281],[-67.59223,8.03006],[-67.5869,8.03021],[-67.58567,8.03089],[-67.58559,8.03308],[-67.58638,8.03399],[-67.59016,8.03579],[-67.59615,8.03654],[-67.59821,8.03569],[-67.6012,8.036],[-67.60356,8.038],[-67.60728,8.0433],[-67.60456,8.04818],[-67.60074,8.04992],[-67.59506,8.05075],[-67.58963,8.04774],[-67.5895,8.04506],[-67.58847,8.04302],[-67.58687,8.0421],[-67.57746,8.04173],[-67.57566,8.04238],[-67.57375,8.04538],[-67.57507,8.04806],[-67.57675,8.04822],[-67.5824,8.04648],[-67.58544,8.04719],[-67.58986,8.05026],[-67.59017,8.05174],[-67.58779,8.05533],[-67.58433,8.0572],[-67.57989,8.0616],[-67.57571,8.07019],[-67.57572,8.07554],[-67.58004,8.07987],[-67.58434,8.08863],[-67.58689,8.08985],[-67.59282,8.0898],[-67.59613,8.09097],[-67.60236,8.09057],[-67.60403,8.09195],[-67.60634,8.0981],[-67.60868,8.10036],[-67.61201,8.08943],[-67.6142,8.08693],[-67.62973,8.08885],[-67.63021,8.09091],[-67.62929,8.09309],[-67.62701,8.09316],[-67.62141,8.09097],[-67.6192,8.09092],[-67.61505,8.09319],[-67.61415,8.09658],[-67.61576,8.09886],[-67.62287,8.10397],[-67.62409,8.10603],[-67.62533,8.11316],[-67.62706,8.11793],[-67.62983,8.12201],[-67.63248,8.12434],[-67.63133,8.12532],[-67.60962,8.13171],[-67.6024,8.21558],[-67.59859,8.27658],[-67.59542,8.3135],[-67.60309,8.36888],[-67.60311,8.37884],[-67.60254,8.38327],[-67.59658,8.40424],[-67.58687,8.46005],[-67.58607,8.5061],[-67.58972,8.51716],[-67.58867,8.52164],[-67.57462,8.55191],[-67.57147,8.56142],[-67.57089,8.5984],[-67.54722,8.68519],[-67.5443,8.72493],[-67.53783,8.75062],[-67.5415,8.7856],[-67.54136,8.79029],[-67.53412,8.83431],[-67.51014,8.87844],[-67.49758,8.88332],[-67.45375,8.89771],[-67.45648,8.90146],[-67.45859,8.90079],[-67.45977,8.90257],[-67.4625,8.90388],[-67.46284,8.90606],[-67.46067,8.91247],[-67.46244,8.91232],[-67.46504,8.90965],[-67.46597,8.90968],[-67.46464,8.91213],[-67.46473,8.91357],[-67.46762,8.91345],[-67.46852,8.91627],[-67.46424,8.91933],[-67.46367,8.92145],[-67.46275,8.9221],[-67.45642,8.92272],[-67.4545,8.92378],[-67.45448,8.92564],[-67.45363,8.92644],[-67.44833,8.92654],[-67.44596,8.92872],[-67.44409,8.93125],[-67.44411,8.93333],[-67.44855,8.9369],[-67.44883,8.93832],[-67.44522,8.9379],[-67.43984,8.93922],[-67.43445,8.94296],[-67.42654,8.93994],[-67.41127,8.94687],[-67.40567,8.94531],[-67.4029,8.94565],[-67.40286,8.94291],[-67.3996,8.94359],[-67.39228,8.94682],[-67.39304,8.94875],[-67.39212,8.94965],[-67.38813,8.94811],[-67.38309,8.94777],[-67.38218,8.95054],[-67.38085,8.95042],[-67.38174,8.9518],[-67.38153,8.95247],[-67.38069,8.95215],[-67.38024,8.95335],[-67.37908,8.95288],[-67.37994,8.9518],[-67.37923,8.95162],[-67.3786,8.94942],[-67.3763,8.94869],[-67.37565,8.94955],[-67.37777,8.9514],[-67.37781,8.95361],[-67.37668,8.95363],[-67.37598,8.95545],[-67.37148,8.95368],[-67.3714,8.95569],[-67.369,8.95677],[-67.36635,8.95642],[-67.36568,8.95748],[-67.3618,8.95805],[-67.35961,8.95771],[-67.35808,8.95597],[-67.35717,8.95676],[-67.35365,8.9557],[-67.35317,8.95676],[-67.35105,8.95665],[-67.3501,8.9533],[-67.34879,8.95302],[-67.34981,8.95701],[-67.34836,8.9594],[-67.34756,8.95918],[-67.34805,8.95717],[-67.34675,8.95574],[-67.34026,8.9573],[-67.3387,8.95567],[-67.33855,8.95753],[-67.32791,8.9663],[-67.25483,8.97319],[-67.21555,8.97571],[-67.16563,8.9747],[-67.11654,8.97166],[-67.07456,8.96866],[-67.03074,8.96294],[-66.9909,8.96139],[-66.95903,8.96223],[-66.91398,8.96773],[-66.87761,8.97336],[-66.8479,8.98301],[-66.79826,8.98471],[-66.60698,8.98638],[-66.60708,8.99694],[-66.3932,8.99771],[-66.24842,9.00014],[-66.03275,8.99865],[-65.85835,8.9995],[-65.79885,8.99182],[-65.78458,8.99522],[-65.77697,8.99447],[-65.77348,8.99263],[-65.76178,8.99257],[-65.74753,9.01037],[-65.70515,8.97549],[-65.68935,8.95326],[-65.67268,8.94244]]]}},{"type":"Feature","properties":{"nombre":"JUNIN","area_ha":1525966.31},"geometry":{"type":"Polygon","coordinates":[[[-64.49797,8.93122],[-64.50169,8.69048],[-64.49841,8.53262],[-64.51854,8.49851],[-64.50363,8.46722],[-64.49693,8.47038],[-64.48954,8.45494],[-64.50041,8.44978],[-64.49696,8.44263],[-64.52996,8.42704],[-64.52865,8.42445],[-64.55455,8.41221],[-64.5099,8.3719],[-64.50934,8.2264],[-64.50999,8.19997],[-64.50885,8.02814],[-64.52551,8.02216],[-64.53648,8.01642],[-64.55025,8.0078],[-64.55842,7.99993],[-64.56983,7.99073],[-64.57985,7.97968],[-64.58183,7.97659],[-64.58581,7.96246],[-64.58669,7.95583],[-64.58728,7.93316],[-64.58861,7.92675],[-64.59324,7.91865],[-64.59523,7.90938],[-64.59302,7.89215],[-64.58897,7.87529],[-64.58124,7.86314],[-64.57528,7.8577],[-64.5716,7.85556],[-64.5381,7.84599],[-64.52316,7.83959],[-64.49835,7.83134],[-64.49062,7.82795],[-64.48237,7.82162],[-64.48171,7.8203],[-64.48193,7.8178],[-64.48399,7.81382],[-64.48443,7.81029],[-64.48613,7.80896],[-64.48944,7.80837],[-64.494,7.80329],[-64.49923,7.80042],[-64.50865,7.79173],[-64.51211,7.78584],[-64.51535,7.77694],[-64.51918,7.7698],[-64.52625,7.76508],[-64.53567,7.76368],[-64.54833,7.76648],[-64.56674,7.76928],[-64.5811,7.76913],[-64.59354,7.77259],[-64.59773,7.77487],[-64.60149,7.77532],[-64.61687,7.77119],[-64.6344,7.76876],[-64.63918,7.76891],[-64.64551,7.77318],[-64.64897,7.77384],[-64.6531,7.77348],[-64.65656,7.7723],[-64.66215,7.76869],[-64.66716,7.76413],[-64.68519,7.755],[-64.69248,7.74881],[-64.69668,7.74771],[-64.69874,7.74631],[-64.71398,7.7324],[-64.72701,7.71539],[-64.73216,7.71119],[-64.73319,7.70898],[-64.74946,7.70236],[-64.75565,7.69882],[-64.75881,7.69875],[-64.77994,7.68572],[-64.78127,7.6841],[-64.79231,7.68152],[-64.80291,7.67549],[-64.80896,7.6731],[-64.81915,7.67279],[-64.83044,7.66915],[-64.83608,7.66902],[-64.84075,7.66739],[-64.8709,7.66595],[-64.89276,7.67235],[-64.89954,7.67549],[-64.91857,7.68686],[-64.93553,7.69176],[-64.9432,7.69603],[-64.94608,7.6966],[-64.9459,7.69452],[-64.94728,7.69333],[-64.94715,7.69226],[-64.94012,7.69057],[-64.93842,7.68918],[-64.9388,7.68843],[-64.94037,7.68824],[-64.94602,7.69044],[-64.9496,7.69057],[-64.95306,7.69251],[-64.95381,7.69251],[-64.95362,7.69044],[-64.95682,7.69069],[-64.9594,7.69415],[-64.95927,7.70244],[-64.96003,7.70551],[-64.96198,7.70847],[-64.97196,7.71625],[-64.9839,7.72806],[-64.99514,7.74446],[-64.99778,7.74973],[-65.00274,7.75614],[-65.01652,7.77066],[-65.02936,7.77836],[-65.04667,7.78696],[-65.04946,7.78752],[-65.05449,7.79142],[-65.05862,7.79321],[-65.07034,7.79589],[-65.08966,7.79589],[-65.0977,7.79756],[-65.12059,7.80471],[-65.13365,7.8161],[-65.13845,7.82191],[-65.15074,7.83307],[-65.15788,7.83687],[-65.1647,7.83921],[-65.17932,7.842],[-65.19652,7.84156],[-65.21986,7.84334],[-65.2318,7.84301],[-65.23996,7.84357],[-65.25324,7.84625],[-65.26061,7.84814],[-65.27089,7.85239],[-65.30316,7.8755],[-65.31332,7.87885],[-65.33721,7.88321],[-65.34927,7.88332],[-65.362,7.88198],[-65.36559,7.8788],[-65.36609,7.8766],[-65.36898,7.8751],[-65.38292,7.86963],[-65.3975,7.86574],[-65.40412,7.86233],[-65.41044,7.86066],[-65.41797,7.86015],[-65.42733,7.8612],[-65.44544,7.85913],[-65.45285,7.86007],[-65.45902,7.86202],[-65.46729,7.86628],[-65.47548,7.87392],[-65.48832,7.88126],[-65.49195,7.88418],[-65.50248,7.8891],[-65.51325,7.89558],[-65.5307,7.91025],[-65.53764,7.91481],[-65.5456,7.91864],[-65.56371,7.92309],[-65.57865,7.92242],[-65.58357,7.92301],[-65.61147,7.91653],[-65.62637,7.91427],[-65.62524,7.91649],[-65.62961,7.91403],[-65.65642,7.91275],[-65.661,7.91124],[-65.66436,8.13004],[-65.66807,8.67217],[-65.67268,8.94244],[-65.65673,8.92796],[-65.65168,8.92497],[-65.62088,8.91329],[-65.58745,8.9132],[-65.58755,8.8887],[-65.30935,8.8902],[-65.30945,8.8431],[-65.28575,8.8431],[-65.28655,8.8812],[-65.26465,8.8811],[-65.26465,8.8984],[-65.25375,8.8984],[-65.25375,8.9174],[-65.23635,8.9174],[-65.23635,8.9229],[-65.15695,8.9228],[-65.15785,8.9427],[-65.08125,8.9425],[-65.08145,8.8437],[-65.01765,8.8436],[-65.01755,8.8681],[-64.93635,8.8688],[-64.93635,8.9006],[-64.93535,8.9015],[-64.93355,8.9015],[-64.93265,8.9006],[-64.93265,8.9015],[-64.93175,8.9006],[-64.92815,8.9015],[-64.92815,8.9024],[-64.92345,8.9024],[-64.92345,8.9015],[-64.92183,8.9015],[-64.92165,8.9006],[-64.91985,8.9015],[-64.91805,8.8987],[-64.91355,8.8814],[-64.91265,8.8805],[-64.91265,8.8814],[-64.91165,8.8814],[-64.91175,8.8796],[-64.91075,8.8805],[-64.90895,8.8805],[-64.90895,8.8814],[-64.90715,8.8805],[-64.90625,8.8787],[-64.90265,8.8796],[-64.90265,8.8805],[-64.90175,8.8805],[-64.90175,8.8796],[-64.89535,8.8787],[-64.89535,8.8778],[-64.89345,8.8769],[-64.89165,8.8742],[-64.89075,8.8742],[-64.89075,8.8724],[-64.88895,8.8724],[-64.88895,8.8715],[-64.88705,8.8705],[-64.88705,8.8696],[-64.88525,8.8696],[-64.88525,8.8678],[-64.88615,8.8678],[-64.88525,8.8669],[-64.88615,8.8669],[-64.88615,8.8642],[-64.88435,8.8624],[-64.87705,8.8624],[-64.87525,8.8633],[-64.87165,8.8615],[-64.86985,8.86239],[-64.85795,8.8577],[-64.7787,8.85184],[-64.77831,8.84971],[-64.7739,8.8463],[-64.77375,8.84525],[-64.77582,8.84198],[-64.77363,8.83964],[-64.7734,8.83655],[-64.77713,8.82809],[-64.77751,8.825],[-64.78194,8.81955],[-64.78069,8.8135],[-64.77862,8.81384],[-64.77433,8.81685],[-64.77,8.81763],[-64.7642,8.82202],[-64.75943,8.82415],[-64.754,8.83155],[-64.74959,8.83466],[-64.69742,8.88546],[-64.68944,8.90093],[-64.68516,8.90762],[-64.68232,8.90884],[-64.53995,8.93789],[-64.49797,8.93122]]]}},{"type":"Feature","properties":{"nombre":"CARABOBO","area_ha":824977.47},"geometry":{"type":"Polygon","coordinates":[[[-63.33813,8.2451],[-63.33642,8.45524],[-63.33653,8.57061],[-63.3699,8.57058],[-63.36892,8.61619],[-63.36935,8.68391],[-63.36848,8.80054],[-63.33674,8.80059],[-63.3368,8.89558],[-63.31209,8.90273],[-63.32626,8.9262],[-63.31367,8.93032],[-63.28067,8.92535],[-63.25836,8.92444],[-63.14188,8.92541],[-63.12989,8.92383],[-63.12246,8.92532],[-63.12003,8.92459],[-63.11805,8.92386],[-63.11748,8.9219],[-63.11457,8.92159],[-63.11229,8.90583],[-63.14591,8.87399],[-63.1571,8.86443],[-63.16604,8.85516],[-63.16697,8.8487],[-63.16451,8.84271],[-63.16234,8.84154],[-63.15209,8.84107],[-63.14235,8.84188],[-63.1381,8.84338],[-63.13631,8.84285],[-63.13518,8.8408],[-63.13147,8.84039],[-63.12608,8.84085],[-63.12349,8.84325],[-63.08048,8.8439],[-63.07857,8.84688],[-63.07516,8.84991],[-63.06766,8.85396],[-63.03731,8.86186],[-63.00381,8.86369],[-62.99813,8.86618],[-62.99735,8.86459],[-62.98304,8.86854],[-62.9707,8.87382],[-62.96992,8.8725],[-62.96195,8.87637],[-62.96194,8.87837],[-62.93536,8.88995],[-62.91351,8.89375],[-62.91027,8.90245],[-62.88848,8.91611],[-62.86062,8.93254],[-62.85408,8.93565],[-62.84489,8.94494],[-62.81217,8.95523],[-62.80444,8.95854],[-62.7974,8.96005],[-62.78852,8.96492],[-62.77758,8.97225],[-62.76403,8.97918],[-62.7612,8.97969],[-62.74278,8.99022],[-62.73437,8.99081],[-62.72836,8.99197],[-62.72593,8.9933],[-62.72152,8.99316],[-62.70789,9.00087],[-62.70077,8.99995],[-62.69358,9.00313],[-62.68179,9.0048],[-62.67171,9.00507],[-62.66201,9.03692],[-62.60706,9.03857],[-62.58789,9.02652],[-62.57411,8.98307],[-62.6141,8.96272],[-62.60182,8.93356],[-62.55121,8.87933],[-62.53752,8.88376],[-62.46442,8.91146],[-62.40627,8.93072],[-62.39439,8.93621],[-62.39353,8.9377],[-62.39459,8.93843],[-62.39437,8.94073],[-62.39248,8.94511],[-62.38688,8.94567],[-62.38521,8.94914],[-62.38291,8.95137],[-62.38441,8.95314],[-62.38339,8.95541],[-62.38273,8.95518],[-62.38216,8.95604],[-62.3828,8.95905],[-62.38202,8.962],[-62.38051,8.96288],[-62.38272,8.96415],[-62.3825,8.96574],[-62.38046,8.96686],[-62.37994,8.96627],[-62.37816,8.96663],[-62.37834,8.9701],[-62.37974,8.9725],[-62.37828,8.97348],[-62.37384,8.97367],[-62.37213,8.97498],[-62.37304,8.97632],[-62.37169,8.97728],[-62.37168,8.97843],[-62.37377,8.97852],[-62.37364,8.97989],[-62.375,8.98278],[-62.37475,8.98461],[-62.37329,8.98384],[-62.37043,8.98399],[-62.36903,8.98549],[-62.36724,8.98298],[-62.36559,8.98363],[-62.36454,8.98524],[-62.36327,8.98538],[-62.36296,8.98684],[-62.35969,8.98813],[-62.35954,8.99054],[-62.35691,8.99318],[-62.35697,8.99454],[-62.35387,9.00035],[-62.35551,9.00373],[-62.3554,9.00596],[-62.35245,9.01002],[-62.35207,9.01396],[-62.3503,9.01632],[-62.35162,9.0205],[-62.3536,9.02341],[-62.35432,9.02848],[-62.3578,9.03258],[-62.35957,9.03958],[-62.35633,9.04176],[-62.35275,9.04224],[-62.34722,9.04078],[-62.34548,9.04261],[-62.34542,9.04435],[-62.34664,9.05011],[-62.34748,9.051],[-62.34988,9.05155],[-62.3541,9.04987],[-62.35618,9.05061],[-62.35785,9.05142],[-62.35904,9.05542],[-62.35885,9.061],[-62.35598,9.06579],[-62.35437,9.0676],[-62.34943,9.0675],[-62.34798,9.06924],[-62.34778,9.07635],[-62.34865,9.07743],[-62.35064,9.07714],[-62.35332,9.07868],[-62.35235,9.0826],[-62.35096,9.08401],[-62.3468,9.08574],[-62.33711,9.08254],[-62.33504,9.08263],[-62.33194,9.08535],[-62.33208,9.08961],[-62.33141,9.09141],[-62.32597,9.09444],[-62.32388,9.09669],[-62.32563,9.10235],[-62.32576,9.11119],[-62.32791,9.11364],[-62.33137,9.11479],[-62.32717,9.12321],[-62.32634,9.12747],[-62.32493,9.12909],[-62.3182,9.13013],[-62.31145,9.13269],[-62.30489,9.13795],[-62.30245,9.13886],[-62.29762,9.13853],[-62.2826,9.13245],[-62.27747,9.13215],[-62.26549,9.13382],[-62.26135,9.13281],[-62.2605,9.12961],[-62.2652,9.11713],[-62.26473,9.11488],[-62.26273,9.11204],[-62.24925,9.10291],[-62.24082,9.09589],[-62.23157,9.09253],[-62.22555,9.09184],[-62.22293,9.09043],[-62.2221,9.08897],[-62.22186,9.08603],[-62.22697,9.06168],[-62.22568,9.06059],[-62.21817,9.06048],[-62.21289,9.06318],[-62.21031,9.06555],[-62.20625,9.06712],[-62.20207,9.06761],[-62.19322,9.06479],[-62.19055,9.06591],[-62.18774,9.06925],[-62.18758,9.07219],[-62.18998,9.08399],[-62.18919,9.08822],[-62.1843,9.09005],[-62.17902,9.08979],[-62.16452,9.08714],[-62.16279,9.08831],[-62.16186,9.09117],[-62.16227,9.09435],[-62.16476,9.09845],[-62.16573,9.10357],[-62.16443,9.10617],[-62.16084,9.10673],[-62.15511,9.10537],[-62.14746,9.10232],[-62.14365,9.09965],[-62.14118,9.09608],[-62.14061,9.09192],[-62.1412,9.08836],[-62.14589,9.07991],[-62.14741,9.07561],[-62.14724,9.07195],[-62.14579,9.06799],[-62.14192,9.06388],[-62.13215,9.05709],[-62.123,9.05132],[-62.11256,9.04686],[-62.11127,9.04847],[-62.11217,9.05599],[-62.11487,9.06453],[-62.11319,9.06932],[-62.11148,9.0715],[-62.10223,9.08],[-62.10739,9.08801],[-62.10752,9.09215],[-62.10532,9.10104],[-62.10268,9.10509],[-62.10158,9.11621],[-62.07549,9.11641],[-62.0647,9.11455],[-62.05456,9.12417],[-62.03353,9.11507],[-62.01298,9.10449],[-62.01901,9.09807],[-62.0202,9.08939],[-62.01921,9.0868],[-62.01759,9.08519],[-62.01645,9.08077],[-62.01212,9.07329],[-62.00921,9.07183],[-62.00887,9.07086],[-62.01958,9.06335],[-62.02567,9.05776],[-62.04329,9.04758],[-62.04854,9.03923],[-62.05144,9.03368],[-62.0515,9.02733],[-62.05501,9.02326],[-62.05322,9.01982],[-62.05532,9.01574],[-62.05726,9.00886],[-62.05827,8.99914],[-62.06096,8.99519],[-62.06349,8.99483],[-62.06527,8.99011],[-62.07801,8.98177],[-62.0797,8.9573],[-62.07853,8.95508],[-62.06938,8.9512],[-62.06328,8.95313],[-62.06141,8.95281],[-62.05911,8.95011],[-62.05805,8.94675],[-62.05409,8.94404],[-62.03962,8.92721],[-62.04571,8.92159],[-62.05499,8.92009],[-62.05549,8.91799],[-62.05168,8.90914],[-62.03913,8.90176],[-62.03234,8.90536],[-62.02764,8.90347],[-62.01594,8.9133],[-62.01163,8.91166],[-62.00915,8.90109],[-62.00163,8.89866],[-61.9978,8.89602],[-61.99573,8.89294],[-61.99665,8.88968],[-62.00865,8.87943],[-62.01672,8.8671],[-62.02476,8.85701],[-62.02625,8.85118],[-62.02604,8.84257],[-62.04932,8.8286],[-62.05895,8.82417],[-62.06197,8.81475],[-62.0599,8.79672],[-62.05851,8.7749],[-62.0639,8.7626],[-62.07238,8.75147],[-62.07865,8.74792],[-62.10039,8.73944],[-62.11104,8.7328],[-62.11955,8.72496],[-62.12779,8.71899],[-62.14126,8.71068],[-62.15971,8.70501],[-62.17046,8.70092],[-62.17792,8.69697],[-62.1824,8.6913],[-62.18453,8.68624],[-62.18879,8.68004],[-62.19912,8.66751],[-62.21621,8.64318],[-62.22893,8.61517],[-62.23949,8.60295],[-62.2508,8.59223],[-62.28182,8.57153],[-62.31887,8.5645],[-62.33765,8.56185],[-62.34935,8.55844],[-62.37428,8.54196],[-62.39303,8.52783],[-62.42956,8.51814],[-62.44176,8.51297],[-62.45216,8.51138],[-62.4595,8.51164],[-62.473,8.5099],[-62.49481,8.513],[-62.51401,8.50244],[-62.54253,8.4834],[-62.55774,8.46977],[-62.57366,8.45989],[-62.58483,8.45754],[-62.60139,8.45263],[-62.61618,8.45513],[-62.62197,8.44986],[-62.6325,8.4369],[-62.64696,8.4124],[-62.65225,8.40567],[-62.66076,8.39717],[-62.67449,8.38777],[-62.7012,8.38377],[-62.71284,8.38537],[-62.72857,8.38544],[-62.73536,8.38752],[-62.73938,8.39008],[-62.74717,8.40059],[-62.7494,8.40563],[-62.75143,8.4062],[-62.75502,8.40927],[-62.76661,8.41181],[-62.76598,8.41088],[-62.76681,8.41005],[-62.77248,8.40932],[-62.78152,8.40563],[-62.78225,8.405],[-62.7822,8.40308],[-62.78397,8.40199],[-62.78714,8.39632],[-62.79155,8.38422],[-62.79524,8.37819],[-62.79987,8.36686],[-62.806,8.35755],[-62.80808,8.3522],[-62.81177,8.34695],[-62.81312,8.34321],[-62.81463,8.34212],[-62.81489,8.3389],[-62.81827,8.33292],[-62.81868,8.32902],[-62.82217,8.3219],[-62.82565,8.31722],[-62.83162,8.31156],[-62.84878,8.30537],[-62.86457,8.29259],[-62.87684,8.28583],[-62.88531,8.28349],[-62.88921,8.28422],[-62.90257,8.28323],[-62.9061,8.28443],[-62.9075,8.28401],[-62.9086,8.28682],[-62.91982,8.29321],[-62.9259,8.30002],[-62.92569,8.30064],[-62.9246,8.30018],[-62.9244,8.30101],[-62.92783,8.30672],[-62.92835,8.30927],[-62.93214,8.31566],[-62.93294,8.31859],[-62.93662,8.32289],[-62.93694,8.32494],[-62.94606,8.32988],[-62.94957,8.33011],[-62.95109,8.3314],[-62.95156,8.3335],[-62.95353,8.33212],[-62.96308,8.33504],[-62.96257,8.33586],[-62.9577,8.33601],[-62.95528,8.33835],[-62.95302,8.33886],[-62.95365,8.34019],[-62.95598,8.34151],[-62.95739,8.34112],[-62.95821,8.33972],[-62.96144,8.34073],[-62.95875,8.34217],[-62.9584,8.34326],[-62.96573,8.34085],[-62.96807,8.33867],[-62.96631,8.33699],[-62.96698,8.33601],[-62.97123,8.33676],[-62.96935,8.33742],[-62.97084,8.33804],[-62.97021,8.33968],[-62.96596,8.34159],[-62.96631,8.34217],[-62.96916,8.34186],[-62.97325,8.33948],[-62.97399,8.33964],[-62.97372,8.34116],[-62.97477,8.34104],[-62.97972,8.33855],[-62.98288,8.33804],[-62.98311,8.33999],[-62.98502,8.33859],[-62.98619,8.34058],[-62.98697,8.33921],[-62.98834,8.33878],[-62.99005,8.34198],[-62.99153,8.34019],[-62.99356,8.34143],[-62.9943,8.34295],[-62.99516,8.34151],[-62.9943,8.33964],[-62.9968,8.33824],[-63.00121,8.33811],[-63.02676,8.33026],[-63.03509,8.32932],[-63.04701,8.32558],[-63.0547,8.32627],[-63.06621,8.32918],[-63.06937,8.33073],[-63.07535,8.34006],[-63.07868,8.35115],[-63.08131,8.3569],[-63.08727,8.36605],[-63.09046,8.37402],[-63.09344,8.37727],[-63.09392,8.37915],[-63.10203,8.38393],[-63.10654,8.38414],[-63.11104,8.38365],[-63.11437,8.38233],[-63.11929,8.3788],[-63.12123,8.37859],[-63.12982,8.36889],[-63.13459,8.35998],[-63.14083,8.35078],[-63.1533,8.33768],[-63.15907,8.33274],[-63.16857,8.32879],[-63.18263,8.31916],[-63.18554,8.31847],[-63.18998,8.31999],[-63.1967,8.3254],[-63.19836,8.32561],[-63.20321,8.33039],[-63.20848,8.33822],[-63.20973,8.3421],[-63.20966,8.34937],[-63.21125,8.35104],[-63.21361,8.35221],[-63.21971,8.35325],[-63.22588,8.35221],[-63.23634,8.34806],[-63.24167,8.34397],[-63.25983,8.32075],[-63.26163,8.31715],[-63.2626,8.30793],[-63.26233,8.30017],[-63.26066,8.29595],[-63.26052,8.29304],[-63.26706,8.28062],[-63.27216,8.27686],[-63.2762,8.27103],[-63.28341,8.26613],[-63.28574,8.26677],[-63.29261,8.26608],[-63.30432,8.26206],[-63.3222,8.25111],[-63.32899,8.24487],[-63.33183,8.24321],[-63.33616,8.24207],[-63.33813,8.2451]]]}}]}